[{"OBJECT_NAME":"STARLINK-30771","OBJECT_ID":"2023-166V","EPOCH":"2023-11-21T12:00:00.999648","MEAN_MOTION":15.44304199,"ECCENTRICITY":0.0001657,"INCLINATION":53.0546,"RA_OF_ASC_NODE":147.0517,"ARG_OF_PERICENTER":120.4022,"MEAN_ANOMALY":313.6556,"EPHEMERIS_TYPE":0,"CLASSIFICATION_TYPE":"U","NORAD_CAT_ID":58169,"ELEMENT_SET_NO":999,"REV_AT_EPOCH":487,"BSTAR":-0.016572,"MEAN_MOTION_DOT":-0.00717426,"MEAN_MOTION_DDOT":0},{"OBJECT_NAME":"STARLINK-30764","OBJECT_ID":"2023-166W","EPOCH":"2023-11-21T12:00:00.999648","MEAN_MOTION":15.44301102,"ECCENTRICITY":0.0001662,"INCLINATION":53.0546,"RA_OF_ASC_NODE":147.0505,"ARG_OF_PERICENTER":127.0361,"MEAN_ANOMALY":307.6072,"EPHEMERIS_TYPE":0,"CLASSIFICATION_TYPE":"U","NORAD_CAT_ID":58170,"ELEMENT_SET_NO":999,"REV_AT_EPOCH":487,"BSTAR":-0.016446,"MEAN_MOTION_DOT":-0.00712301,"MEAN_MOTION_DDOT":0},{"OBJECT_NAME":"STARLINK-30752","OBJECT_ID":"2023-166X","EPOCH":"2023-11-21T12:00:00.999648","MEAN_MOTION":15.44289745,"ECCENTRICITY":0.0001045,"INCLINATION":53.0547,"RA_OF_ASC_NODE":147.0495,"ARG_OF_PERICENTER":111.0762,"MEAN_ANOMALY":324.1517,"EPHEMERIS_TYPE":0,"CLASSIFICATION_TYPE":"U","NORAD_CAT_ID":58171,"ELEMENT_SET_NO":999,"REV_AT_EPOCH":488,"BSTAR":-0.013788,"MEAN_MOTION_DOT":-0.00597486,"MEAN_MOTION_DDOT":0},{"OBJECT_NAME":"STARLINK-30753","OBJECT_ID":"2023-167A","EPOCH":"2023-11-21T12:00:00.999648","MEAN_MOTION":15.51414081,"ECCENTRICITY":0.0001545,"INCLINATION":42.9998,"RA_OF_ASC_NODE":35.032,"ARG_OF_PERICENTER":272.4357,"MEAN_ANOMALY":11.6315,"EPHEMERIS_TYPE":0,"CLASSIFICATION_TYPE":"U","NORAD_CAT_ID":58175,"ELEMENT_SET_NO":999,"REV_AT_EPOCH":456,"BSTAR":-0.030529,"MEAN_MOTION_DOT":-0.01654166,"MEAN_MOTION_DDOT":0},{"OBJECT_NAME":"STARLINK-30824","OBJECT_ID":"2023-167B","EPOCH":"2023-11-21T12:00:00.999648","MEAN_MOTION":15.51413122,"ECCENTRICITY":0.0001157,"INCLINATION":42.9999,"RA_OF_ASC_NODE":35.0303,"ARG_OF_PERICENTER":275.0884,"MEAN_ANOMALY":9.5778,"EPHEMERIS_TYPE":0,"CLASSIFICATION_TYPE":"U","NORAD_CAT_ID":58176,"ELEMENT_SET_NO":999,"REV_AT_EPOCH":455,"BSTAR":-0.030559,"MEAN_MOTION_DOT":-0.0165539,"MEAN_MOTION_DDOT":0},{"OBJECT_NAME":"STARLINK-30791","OBJECT_ID":"2023-167C","EPOCH":"2023-11-21T12:00:00.999648","MEAN_MOTION":15.51411885,"ECCENTRICITY":0.0001236,"INCLINATION":42.9995,"RA_OF_ASC_NODE":35.0287,"ARG_OF_PERICENTER":272.5491,"MEAN_ANOMALY":12.7167,"EPHEMERIS_TYPE":0,"CLASSIFICATION_TYPE":"U","NORAD_CAT_ID":58177,"ELEMENT_SET_NO":999,"REV_AT_EPOCH":455,"BSTAR":-0.030547,"MEAN_MOTION_DOT":-0.01654778,"MEAN_MOTION_DDOT":0},{"OBJECT_NAME":"STARLINK-30810","OBJECT_ID":"2023-167D","EPOCH":"2023-11-21T12:00:00.999648","MEAN_MOTION":15.5141295,"ECCENTRICITY":0.0001231,"INCLINATION":42.9996,"RA_OF_ASC_NODE":35.027,"ARG_OF_PERICENTER":270.9792,"MEAN_ANOMALY":14.8847,"EPHEMERIS_TYPE":0,"CLASSIFICATION_TYPE":"U","NORAD_CAT_ID":58178,"ELEMENT_SET_NO":999,"REV_AT_EPOCH":455,"BSTAR":-0.030624,"MEAN_MOTION_DOT":-0.01658574,"MEAN_MOTION_DDOT":0},{"OBJECT_NAME":"STARLINK-30819","OBJECT_ID":"2023-167E","EPOCH":"2023-11-21T12:00:00.999648","MEAN_MOTION":15.51412043,"ECCENTRICITY":0.0001203,"INCLINATION":42.9996,"RA_OF_ASC_NODE":35.0253,"ARG_OF_PERICENTER":270.4326,"MEAN_ANOMALY":16.0297,"EPHEMERIS_TYPE":0,"CLASSIFICATION_TYPE":"U","NORAD_CAT_ID":58179,"ELEMENT_SET_NO":999,"REV_AT_EPOCH":461,"BSTAR":-0.030629,"MEAN_MOTION_DOT":-0.01658755,"MEAN_MOTION_DDOT":0},{"OBJECT_NAME":"STARLINK-30806","OBJECT_ID":"2023-167F","EPOCH":"2023-11-21T12:00:00.999648","MEAN_MOTION":15.51409831,"ECCENTRICITY":0.0001245,"INCLINATION":42.9994,"RA_OF_ASC_NODE":35.0222,"ARG_OF_PERICENTER":278.3777,"MEAN_ANOMALY":9.2811,"EPHEMERIS_TYPE":0,"CLASSIFICATION_TYPE":"U","NORAD_CAT_ID":58180,"ELEMENT_SET_NO":999,"REV_AT_EPOCH":455,"BSTAR":-0.030647,"MEAN_MOTION_DOT":-0.0165953,"MEAN_MOTION_DDOT":0},{"OBJECT_NAME":"STARLINK-30821","OBJECT_ID":"2023-167G","EPOCH":"2023-11-21T12:00:00.999648","MEAN_MOTION":15.51409168,"ECCENTRICITY":0.0001347,"INCLINATION":42.9995,"RA_OF_ASC_NODE":35.0238,"ARG_OF_PERICENTER":276.8016,"MEAN_ANOMALY":10.2596,"EPHEMERIS_TYPE":0,"CLASSIFICATION_TYPE":"U","NORAD_CAT_ID":58181,"ELEMENT_SET_NO":999,"REV_AT_EPOCH":455,"BSTAR":-0.030564,"MEAN_MOTION_DOT":-0.0165551,"MEAN_MOTION_DDOT":0},{"OBJECT_NAME":"STARLINK-30778","OBJECT_ID":"2023-167H","EPOCH":"2023-11-21T12:00:00.999648","MEAN_MOTION":15.51406943,"ECCENTRICITY":0.0001632,"INCLINATION":42.9996,"RA_OF_ASC_NODE":35.021,"ARG_OF_PERICENTER":272.7227,"MEAN_ANOMALY":15.5344,"EPHEMERIS_TYPE":0,"CLASSIFICATION_TYPE":"U","NORAD_CAT_ID":58182,"ELEMENT_SET_NO":999,"REV_AT_EPOCH":455,"BSTAR":-0.030543,"MEAN_MOTION_DOT":-0.01654506,"MEAN_MOTION_DDOT":0},{"OBJECT_NAME":"STARLINK-30809","OBJECT_ID":"2023-167J","EPOCH":"2023-11-21T12:00:00.999648","MEAN_MOTION":15.51408004,"ECCENTRICITY":0.0001208,"INCLINATION":42.9995,"RA_OF_ASC_NODE":35.0192,"ARG_OF_PERICENTER":269.175,"MEAN_ANOMALY":19.6817,"EPHEMERIS_TYPE":0,"CLASSIFICATION_TYPE":"U","NORAD_CAT_ID":58183,"ELEMENT_SET_NO":999,"REV_AT_EPOCH":455,"BSTAR":-0.030639,"MEAN_MOTION_DOT":-0.01659026,"MEAN_MOTION_DDOT":0},{"OBJECT_NAME":"STARLINK-30801","OBJECT_ID":"2023-167K","EPOCH":"2023-11-21T12:00:00.999648","MEAN_MOTION":15.5140649,"ECCENTRICITY":0.0001255,"INCLINATION":42.9995,"RA_OF_ASC_NODE":35.0177,"ARG_OF_PERICENTER":274.0839,"MEAN_ANOMALY":15.3716,"EPHEMERIS_TYPE":0,"CLASSIFICATION_TYPE":"U","NORAD_CAT_ID":58184,"ELEMENT_SET_NO":999,"REV_AT_EPOCH":456,"BSTAR":-0.030637,"MEAN_MOTION_DOT":-0.01658869,"MEAN_MOTION_DDOT":0},{"OBJECT_NAME":"STARLINK-30793","OBJECT_ID":"2023-167L","EPOCH":"2023-11-21T12:00:00.999648","MEAN_MOTION":15.51404197,"ECCENTRICITY":0.0001154,"INCLINATION":42.9996,"RA_OF_ASC_NODE":35.0161,"ARG_OF_PERICENTER":275.6256,"MEAN_ANOMALY":14.4282,"EPHEMERIS_TYPE":0,"CLASSIFICATION_TYPE":"U","NORAD_CAT_ID":58185,"ELEMENT_SET_NO":999,"REV_AT_EPOCH":455,"BSTAR":-0.030591,"MEAN_MOTION_DOT":-0.01656465,"MEAN_MOTION_DDOT":0},{"OBJECT_NAME":"STARLINK-30755","OBJECT_ID":"2023-167M","EPOCH":"2023-11-21T12:00:00.999648","MEAN_MOTION":15.51402916,"ECCENTRICITY":0.0001537,"INCLINATION":42.9996,"RA_OF_ASC_NODE":35.0147,"ARG_OF_PERICENTER":275.1753,"MEAN_ANOMALY":15.4765,"EPHEMERIS_TYPE":0,"CLASSIFICATION_TYPE":"U","NORAD_CAT_ID":58186,"ELEMENT_SET_NO":999,"REV_AT_EPOCH":455,"BSTAR":-0.030566,"MEAN_MOTION_DOT":-0.01655361,"MEAN_MOTION_DDOT":0},{"OBJECT_NAME":"STARLINK-30760","OBJECT_ID":"2023-167N","EPOCH":"2023-11-21T12:00:00.999648","MEAN_MOTION":15.51401237,"ECCENTRICITY":0.0001554,"INCLINATION":42.9995,"RA_OF_ASC_NODE":35.0132,"ARG_OF_PERICENTER":273.6116,"MEAN_ANOMALY":17.6391,"EPHEMERIS_TYPE":0,"CLASSIFICATION_TYPE":"U","NORAD_CAT_ID":58187,"ELEMENT_SET_NO":999,"REV_AT_EPOCH":460,"BSTAR":-0.030551,"MEAN_MOTION_DOT":-0.01654551,"MEAN_MOTION_DDOT":0}]
