STARLINK-30771          
1 58169U 23166V   23325.50001157 -.00717426  00000+0 -16572-1 0  9991
2 58169  53.0546 147.0517 0001657 120.4022 313.6556 15.44304199  4877
STARLINK-30764          
1 58170U 23166W   23325.50001157 -.00712301  00000+0 -16446-1 0  9990
2 58170  53.0546 147.0505 0001662 127.0361 307.6072 15.44301102  4878
STARLINK-30752          
1 58171U 23166X   23325.50001157 -.00597486  00000+0 -13788-1 0  9992
2 58171  53.0547 147.0495 0001045 111.0762 324.1517 15.44289745  4888
STARLINK-30753          
1 58175U 23167A   23325.50001157 -.01654166  00000+0 -30529-1 0  9999
2 58175  42.9998  35.0320 0001545 272.4357  11.6315 15.51414081  4569
STARLINK-30824          
1 58176U 23167B   23325.50001157 -.01655390  00000+0 -30559-1 0  9993
2 58176  42.9999  35.0303 0001157 275.0884   9.5778 15.51413122  4558
STARLINK-30791          
1 58177U 23167C   23325.50001157 -.01654778  00000+0 -30547-1 0  9990
2 58177  42.9995  35.0287 0001236 272.5491  12.7167 15.51411885  4552
STARLINK-30810          
1 58178U 23167D   23325.50001157 -.01658574  00000+0 -30624-1 0  9995
2 58178  42.9996  35.0270 0001231 270.9792  14.8847 15.51412950  4559
STARLINK-30819          
1 58179U 23167E   23325.50001157 -.01658755  00000+0 -30629-1 0  9992
2 58179  42.9996  35.0253 0001203 270.4326  16.0297 15.51412043  4611
STARLINK-30806          
1 58180U 23167F   23325.50001157 -.01659530  00000+0 -30647-1 0  9996
2 58180  42.9994  35.0222 0001245 278.3777   9.2811 15.51409831  4550
STARLINK-30821          
1 58181U 23167G   23325.50001157 -.01655510  00000+0 -30564-1 0  9999
2 58181  42.9995  35.0238 0001347 276.8016  10.2596 15.51409168  4556
STARLINK-30778          
1 58182U 23167H   23325.50001157 -.01654506  00000+0 -30543-1 0  9991
2 58182  42.9996  35.0210 0001632 272.7227  15.5344 15.51406943  4551
STARLINK-30809          
1 58183U 23167J   23325.50001157 -.01659026  00000+0 -30639-1 0  9990
2 58183  42.9995  35.0192 0001208 269.1750  19.6817 15.51408004  4550
STARLINK-30801          
1 58184U 23167K   23325.50001157 -.01658869  00000+0 -30637-1 0  9993
2 58184  42.9995  35.0177 0001255 274.0839  15.3716 15.51406490  4568
STARLINK-30793          
1 58185U 23167L   23325.50001157 -.01656465  00000+0 -30591-1 0  9993
2 58185  42.9996  35.0161 0001154 275.6256  14.4282 15.51404197  4550
STARLINK-30755          
1 58186U 23167M   23325.50001157 -.01655361  00000+0 -30566-1 0  9990
2 58186  42.9996  35.0147 0001537 275.1753  15.4765 15.51402916  4551
STARLINK-30760          
1 58187U 23167N   23325.50001157 -.01654551  00000+0 -30551-1 0  9995
2 58187  42.9995  35.0132 0001554 273.6116  17.6391 15.51401237  4600
